[{"OBJECT_NAME":"SITRO-AIS 8 (ANOKHIN)","OBJECT_ID":"2023-091AD","EPOCH":"2026-03-09T23:44:40.058592","MEAN_MOTION":15.29359179,"ECCENTRICITY":0.0012509,"INCLINATION":97.5169,"RA_OF_ASC_NODE":133.2823,"ARG_OF_PERICENTER":92.0171,"MEAN_ANOMALY":268.2501,"EPHEMERIS_TYPE":0,"CLASSIFICATION_TYPE":"U","NORAD_CAT_ID":57193,"ELEMENT_SET_NO":999,"REV_AT_EPOCH":14927,"BSTAR":0.00064982524,"MEAN_MOTION_DOT":0.00018494,"MEAN_MOTION_DDOT":0},{"OBJECT_NAME":"STARLINK-35659","OBJECT_ID":"2025-257F","EPOCH":"2026-03-09T16:13:10.363296","MEAN_MOTION":15.30231809,"ECCENTRICITY":0.00012946,"INCLINATION":53.1599,"RA_OF_ASC_NODE":216.9291,"ARG_OF_PERICENTER":81.9957,"MEAN_ANOMALY":278.1191,"EPHEMERIS_TYPE":0,"CLASSIFICATION_TYPE":"U","NORAD_CAT_ID":66385,"ELEMENT_SET_NO":999,"REV_AT_EPOCH":1973,"BSTAR":0.00063513382,"MEAN_MOTION_DOT":0.00018517,"MEAN_MOTION_DDOT":0}]
